satname,norad_id,inclination_deg,eccentricity,mean_motion_rev_per_day,perigee_km,apogee_km,l1,l2
STARLINK-1008,44714,53.0554,0.0001366,15.0639324,546.2862709989759,548.1782818852998,1 44714U 19074B   26002.62342246  .00000803  00000+0  72817-4 0  9999,2 44714  53.0554 123.2024 0001366  97.2293 262.8852 15.06393240338792
STARLINK-1012,44718,53.0557,0.0001335,15.06390906,546.3148921253296,548.1639676321074,1 44718U 19074F   26002.60131224  .00001300  00000+0  10615-3 0  9993,2 44718  53.0557 123.2996 0001335  86.7886 273.3255 15.06390906338783
STARLINK-1017,44723,53.0509,0.0003419,15.19187522,505.9403413525897,510.64928342590156,1 44723U 19074L   26002.91668980 -.00014461  00000+0 -66507-3 0  9992,2 44723  53.0509 113.7043 0003419 134.9050 207.5966 15.19187522  5610
STARLINK-1019,44724,53.0488,0.000573,15.61291833,380.0498344848402,387.7991569589367,1 44724U 19074M   26002.91668980  .00124807  00000+0  14258-2 0  9992,2 44724  53.0488 102.5162 0005730 316.6788 102.0928 15.61291833  5996
STARLINK-1020,44725,53.0537,0.0002059,15.06403838,545.7738681999263,548.6257218921273,1 44725U 19074N   26002.60314691 -.00000767  00000+0 -32593-4 0  9990,2 44725  53.0537 143.2849 0002059 134.9155 225.2001 15.06403838338501
STARLINK-1031,44736,53.0456,0.0001704,15.65457773,370.77232164893485,373.07274193736976,1 44736U 19074Z   26002.91668980  .00136364  00000+0  13215-2 0  9998,2 44736  53.0456  88.7820 0001704  16.9037 282.7241 15.65457773  5933
STARLINK-1036,44741,53.0543,0.0001249,15.12604553,527.3979188833173,529.123136985796,1 44741U 19074AE  26002.91668980  .01058240  00000+0  55453-1 0  9990,2 44741  53.0543 141.7293 0001249  81.0638  99.7016 15.12604553  5695
STARLINK-1039,44744,53.0468,0.0002389,15.16410402,515.0528427923555,518.3471959202043,1 44744U 19074AH  26002.74699652  .00069670  00000+0  35242-2 0  9997,2 44744  53.0468 156.9057 0002389  68.6561 291.4687 15.16410402338339
STARLINK-1042,44747,53.0465,0.000234,15.46291821,425.9924157000414,429.1774935748126,1 44747U 19074AL  26002.54274720  .00028410  00000+0  57389-3 0  9997,2 44747  53.0465  51.2998 0002340 355.0691   5.0291 15.46291821339824
STARLINK-1043,44748,53.0534,0.000202,15.47135222,423.7371054441719,426.48561778226394,1 44748U 19074AM  26002.72596912  .00036826  00000+0  71936-3 0  9992,2 44748  53.0534 151.3406 0002020 211.9067 148.1818 15.47135222338411
STARLINK-1046,44751,53.0555,0.0001214,15.20731828,502.7964533462091,504.46734683515206,1 44751U 19074AQ  26002.91668980  .01114668  00000+0  46179-1 0  9993,2 44751  53.0555 161.3828 0001214  76.7425 354.0132 15.20731828  5846
STARLINK-1047,44752,53.071,0.0003108,15.30917061,470.94553359796555,475.20424690894833,1 44752U 19074AR  26002.66110181  .00018066  00000+0  60699-3 0  9990,2 44752  53.0710  94.0718 0003108  34.4483 325.6718 15.30917061339221
STARLINK-1048,44753,53.0549,0.0001477,15.18076393,510.63704785378286,512.6722923131265,1 44753U 19074AS  26002.91668980  .01789071  00000+0  78974-1 0  9999,2 44753  53.0549 121.6338 0001477 100.1799  60.2990 15.18076393  5858
STARLINK-1053,44758,53.0376,0.0002375,15.70843233,354.8863481453427,358.08529398534756,1 44758U 19074AX  26002.42799595  .00121447  00000+0  94680-3 0  9997,2 44758  53.0376  55.8009 0002375  11.1756 348.9313 15.70843233339731
STARLINK-1060,44765,53.0445,0.0004024,15.84420792,315.26163446788723,320.6506502288494,1 44765U 19074BE  26002.91668980  .00258703  00000+0  10798-2 0  9995,2 44765  53.0445  96.3180 0004024 284.4776   0.5890 15.84420792  5980
STARLINK-1063,44768,53.0539,0.0001275,15.06385121,546.3741725502223,548.1401480611003,1 44768U 19074BH  26002.80772744 -.00000533  00000+0 -16902-4 0  9993,2 44768  53.0539 162.3751 0001275  92.3515 267.7619 15.06385121338274
STARLINK-1067,44771,53.0543,0.000106,15.42518885,437.95552525115454,439.4006900539762,1 44771U 19074BL  26002.91668980  .00307609  00000+0  67169-2 0  9996,2 44771  53.0543 159.5432 0001060  71.2642 345.1626 15.42518885  5732
STARLINK-1068,44772,53.0535,0.0003221,15.42461257,436.6521447559171,441.04364642565633,1 44772U 19074BM  26002.91668980  .00111768  00000+0  25147-2 0  9996,2 44772  53.0535 137.4454 0003221 348.8051 109.6852 15.42461257  5690
STARLINK-1112,44925,53.0441,0.0008475,15.71470662,348.9870408793249,360.3991879232344,1 44925U 20001M   26002.91668980  .00169645  00000+0  12769-2 0  9991,2 44925  53.0441 214.6202 0008475 112.3631  98.2961 15.71470662  6023
STARLINK-1114,44927,53.0559,0.0001542,15.1791864,511.06954006738306,513.194499033013,1 44927U 20001P   26002.91668980  .00983603  00000+0  44622-1 0  9993,2 44927  53.0559 281.4843 0001542  94.5320 244.7863 15.17918640  5786
STARLINK-1123,44930,53.0537,0.0001402,15.06400716,546.2384299421074,548.180297062433,1 44930U 20001S   26002.17743515  .00012985  00000+0  88899-3 0  9995,2 44930  53.0537 285.2044 0001402  86.3281 273.7869 15.06400716329821
STARLINK-1144,44933,53.0358,0.0001445,15.82709736,321.81305560265355,323.74962100242374,1 44933U 20001V   26002.91668980  .00388050  00000+0  17287-2 0  9993,2 44933  53.0358 187.5239 0001445 272.9202 146.6934 15.82709736  5929
STARLINK-1094,44941,53.0539,0.0001272,15.06412289,546.2929946335244,548.054793725004,1 44941U 20001AD  26002.85379997  .00009175  00000+0  63384-3 0  9990,2 44941  53.0539 262.1715 0001272  90.6986 269.4149 15.06412289330204
STARLINK-1122,44949,53.0556,0.0001676,15.06397961,546.0571177209713,548.3784966523408,1 44949U 20001AM  26002.74322410  .00001648  00000+0  12949-3 0  9992,2 44949  53.0556 262.6670 0001676  95.3810 264.7370 15.06397961330182
STARLINK-1080,44961,53.063,0.0001492,15.35221422,459.2426002965731,461.2831788236181,1 44961U 20001AZ  26002.91668980  .01008853  00000+0  26783-1 0  9995,2 44961  53.0630 240.2159 0001492  87.6167 284.0865 15.35221422  5697
STARLINK-1090,44968,53.0539,0.0001448,15.06412904,546.1692245745608,548.1747940636587,1 44968U 20001BG  26002.08159851  .00005539  00000+0  39030-3 0  9990,2 44968  53.0539 245.6313 0001448  71.5939 288.5207 15.06412904330373
STARLINK-1132,45044,53.0551,0.0001357,15.06400227,546.271092511156,548.1506319209611,1 45044U 20006A   26002.83721051  .00001063  00000+0  90233-4 0  9992,2 45044  53.0551 202.2455 0001357  90.5770 269.5375 15.06400227326816
STARLINK-1131,45047,53.0539,0.0002257,15.06414047,545.6054647882011,548.7315476937192,1 45047U 20006D   26002.81333016  .00006615  00000+0  46238-3 0  9996,2 45047  53.0539 222.8912 0002257  95.8210 264.3036 15.06414047326528
STARLINK-1134,45048,53.0345,0.0004665,15.34726757,458.54142286688966,464.9230208508834,1 45048U 20006E   26002.79559494  .00062704  00000+0  18318-2 0  9992,2 45048  53.0345 189.6139 0004665  76.6123 283.5398 15.34726757326990
STARLINK-1156,45054,53.0551,0.0001494,15.06403889,546.1649934452107,548.2342840328656,1 45054U 20006L   26002.85010828 -.00001888  00000+0 -10786-3 0  9999,2 45054  53.0551 222.1851 0001494  96.9030 263.2129 15.06403889326533
STARLINK-1159,45057,53.0506,0.000678,15.60657329,381.17124957116175,390.3430900654348,1 45057U 20006P   26002.91668980  .00187144  00000+0  21703-2 0  9995,2 45057  53.0506 200.5455 0006780 132.9043 197.5529 15.60657329  5991
STARLINK-1166,45060,53.0522,0.0001244,15.06392263,546.3737545199474,548.0967871409302,1 45060U 20006S   26002.80957390  .00012562  00000+0  86088-3 0  9992,2 45060  53.0522 222.3673 0001244  74.7984 285.3143 15.06392263326531
STARLINK-1169,45061,53.0528,0.0001704,15.06406529,546.0114715813943,548.3716235504053,1 45061U 20006T   26002.81694186  .00002689  00000+0  19931-3 0  9997,2 45061  53.0528 222.3356 0001704  90.6763 269.4421 15.06406529326532
STARLINK-1171,45062,53.0509,0.0014562,15.43361744,426.2729889618531,446.1190524513586,1 45062U 20006U   26002.84712133  .00120242  00000+0  26125-2 0  9992,2 45062  53.0509 205.7922 0014562 128.9252 231.3054 15.43361744326776
STARLINK-1133,45064,53.0541,0.0001267,15.06406737,546.3134710343274,548.0683491267428,1 45064U 20006W   26002.81509612  .00003399  00000+0  24690-3 0  9996,2 45064  53.0541 202.3443 0001267  85.2218 274.8915 15.06406737326814
STARLINK-1167,45071,53.0554,0.0001452,15.06398443,546.2107686196341,548.2218912266435,1 45071U 20006AD  26002.84089923  .00000207  00000+0  32781-4 0  9991,2 45071  53.0554 202.2257 0001452  92.8766 267.2389 15.06398443326811
STARLINK-1168,45072,53.0564,0.0001506,15.06400122,546.1682265893596,548.2541414623884,1 45072U 20006AE  26002.77823667  .00000536  00000+0  54858-4 0  9999,2 45072  53.0564 202.5055 0001506  97.1199 262.9961 15.06400122326805
STARLINK-1172,45074,53.0546,0.0001495,15.06404542,546.162299869131,548.2329749257133,1 45074U 20006AG  26002.78928825  .00001515  00000+0  12058-3 0  9997,2 45074  53.0546 202.4583 0001495  96.4803 263.6357 15.06404542326800
STARLINK-1153,45080,53.0562,0.0001345,15.06403564,546.2691769012408,548.1320927250054,1 45080U 20006AN  26002.83352112  .00000722  00000+0  67321-4 0  9993,2 45080  53.0562 202.2591 0001345  91.6441 268.4702 15.06403564326812
STARLINK-1151,45081,53.0536,0.0001746,15.45068789,429.98705073763176,432.364862822139,1 45081U 20006AP  26002.91668980  .00169679  00000+0  34655-2 0  9995,2 45081  53.0536 196.9481 0001746 148.1486  72.7247 15.45068789  5704
STARLINK-1185,45087,53.0564,0.0001499,15.0639346,546.1934894153965,548.2697149223277,1 45087U 20006AV  26002.72848052  .00000681  00000+0  64645-4 0  9991,2 45087  53.0564 182.7319 0001499  92.0714 268.0447 15.06393460327084
STARLINK-1183,45088,53.0559,0.0001262,15.064005,546.3360467160956,548.0840043053331,1 45088U 20006AW  26002.75059265  .00001689  00000+0  13224-3 0  9990,2 45088  53.0559 182.6322 0001262  98.2384 261.8748 15.06400500327080
STARLINK-1152,45096,53.0422,0.0003315,15.30607576,471.72690811997836,476.26987388421185,1 45096U 20006BE  26002.91668980  .00137990  00000+0  45272-2 0  9999,2 45096  53.0422 154.8196 0003315  88.9361 124.5971 15.30607576  5917
